[{"OBJECT_NAME":"OBJECT B","OBJECT_ID":"2022-023B","EPOCH":"2026-03-09T22:47:53.401632","MEAN_MOTION":15.18262382,"ECCENTRICITY":0.00937159,"INCLINATION":63.476,"RA_OF_ASC_NODE":246.6999,"ARG_OF_PERICENTER":346.6129,"MEAN_ANOMALY":13.2499,"EPHEMERIS_TYPE":0,"CLASSIFICATION_TYPE":"U","NORAD_CAT_ID":51947,"ELEMENT_SET_NO":999,"REV_AT_EPOCH":22265,"BSTAR":0.00086643699,"MEAN_MOTION_DOT":0.00019848,"MEAN_MOTION_DDOT":0},{"OBJECT_NAME":"OBJECT A","OBJECT_ID":"2024-153A","EPOCH":"2026-03-09T23:23:00.048768","MEAN_MOTION":15.38255179,"ECCENTRICITY":0.0008915,"INCLINATION":97.6577,"RA_OF_ASC_NODE":205.6534,"ARG_OF_PERICENTER":134.2023,"MEAN_ANOMALY":225.9955,"EPHEMERIS_TYPE":0,"CLASSIFICATION_TYPE":"U","NORAD_CAT_ID":60745,"ELEMENT_SET_NO":999,"REV_AT_EPOCH":8481,"BSTAR":0.0015987214,"MEAN_MOTION_DOT":0.00060651,"MEAN_MOTION_DDOT":0}]
